BREEZE-M DEB            
1 38961U 12044CU  17346.53158871  .00017361  36978-5  34488-3 0  9993
2 38961  50.1051 168.3214 1793167 259.2096  80.2821 11.94032377210644
